NORAD_CAT_ID,OBJECT_NAME,OBJECT_TYPE,EPOCH,MEAN_MOTION,ECCENTRICITY,INCLINATION,RA_OF_ASC_NODE,ARG_OF_PERICENTER,MEAN_ANOMALY,BSTAR,MEAN_MOTION_DOT,MEAN_MOTION_DDOT,TLE_LINE0,TLE_LINE1,TLE_LINE2,SEMIMAJOR_AXIS,PERIOD,APOGEE,PERIGEE,DECAYED
54182.0,STARLINK-5231,PAYLOAD,2023-10-12 22:00:01,15.10089874,0.000331,53.2169,318.4366,85.2991,262.7612,0.0020376,0.00033431,0.0,0 STARLINK-5231,1 54182U 22141AB  23285.91668981  .00033431  00000-0  20376-2 0  9992,2 54182  53.2169 318.4366 0003310  85.2991 262.7612 15.10089874 53850,6914.063,95.359,538.216,533.639,0.0
54182.0,STARLINK-5231,PAYLOAD,2023-10-13 14:00:01,15.10116239,0.0003344,53.2165,315.4395,82.1509,292.1099,0.0021054,0.00034584,0.0,0 STARLINK-5231,1 54182U 22141AB  23286.58334491  .00034584  00000-0  21054-2 0  9996,2 54182  53.2165 315.4395 0003344  82.1509 292.1099 15.10116239  5739,6913.982,95.357,538.159,533.535,0.0
54182.0,STARLINK-5231,PAYLOAD,2023-10-13 22:00:00,15.10109856,0.0003297,53.2165,313.9384,87.5179,299.8914,0.002766,0.00045589,0.0,0 STARLINK-5231,1 54182U 22141AB  23286.91667824  .00045589  00000-0  27660-2 0  9998,2 54182  53.2165 313.9384 0003297  87.5179 299.8914 15.10109856 54000,6914.002,95.357,538.146,533.587,0.0
54182.0,STARLINK-5231,PAYLOAD,2023-10-14 14:00:01,15.1013384,0.0003319,53.2159,310.9411,84.1232,329.6472,0.0015258,0.00024961,0.0,0 STARLINK-5231,1 54182U 22141AB  23287.58335648  .00024961  00000-0  15258-2 0  9999,2 54182  53.2159 310.9411 0003319  84.1232 329.6472 15.10133840 54101,6913.928,95.356,538.088,533.499,0.0
54182.0,STARLINK-5231,PAYLOAD,2023-10-14 22:00:00,15.10146614,0.0003333,53.2159,309.4399,89.917,336.9787,0.0042072,0.00069803,0.0,0 STARLINK-5231,1 54182U 22141AB  23287.91667824  .00069803  00000-0  42072-2 0  9998,2 54182  53.2159 309.4399 0003333  89.9170 336.9787 15.10146614  5838,6913.889,95.355,538.059,533.45,0.0
54182.0,STARLINK-5231,PAYLOAD,2023-10-15 00:00:00,15.1016052,0.0003378,53.2159,309.065,90.5482,69.6408,0.0036366,0.00060238,0.0,0 STARLINK-5231,1 54182U 22141AB  23288.00001157  .00060238  00000-0  36366-2 0  9992,2 54182  53.2159 309.0650 0003378  90.5482  69.6408 15.10160520 54169,6913.847,95.354,538.048,533.377,0.0
54182.0,STARLINK-5231,PAYLOAD,2023-10-15 12:00:03,15.10183894,0.0003401,53.2156,306.8161,88.9084,271.2299,0.001019,0.00016576,0.0,0 STARLINK-5231,1 54182U 22141AB  23288.50003867  .00016576  00000-0  10190-2 0  9990,2 54182  53.2156 306.8161 0003401  88.9084 271.2299 15.10183894 54241,6913.776,95.353,537.992,533.289,0.0
54182.0,STARLINK-5231,PAYLOAD,2023-10-15 18:21:15,15.10198146,0.0003413,53.2155,305.6254,90.066,270.0724,0.0011161,0.00018195,0.0,0 STARLINK-5231,1 54182U 22141AB  23288.76475976  .00018195  00000-0  11161-2 0  9990,2 54182  53.2155 305.6254 0003413  90.0660 270.0724 15.10198146 54052,6913.732,95.352,537.957,533.238,0.0
54182.0,STARLINK-5231,PAYLOAD,2023-10-16 07:03:38,15.10229314,0.0003444,53.2154,303.2434,91.2203,268.9184,0.0013936,0.00022826,0.0,0 STARLINK-5231,1 54182U 22141AB  23289.29419527  .00022826  00000-0  13936-2 0  9997,2 54182  53.2154 303.2434 0003444  91.2203 268.9184 15.10229314 54367,6913.637,95.35,537.883,533.121,0.0
54182.0,STARLINK-5231,PAYLOAD,2023-10-16 08:38:56,15.10232508,0.0003478,53.2153,302.9461,91.0016,269.1376,0.0014302,0.00023438,0.0,0 STARLINK-5231,1 54182U 22141AB  23289.36037431  .00023438  00000-0  14302-2 0  9993,2 54182  53.2153 302.9461 0003478  91.0016 269.1376 15.10232508 54140,6913.627,95.35,537.897,533.088,0.0
54182.0,STARLINK-5231,PAYLOAD,2023-10-17 08:28:22,15.10280146,0.0003593,53.2157,298.4795,93.1464,266.994,0.0014638,0.00024029,0.0,0 STARLINK-5231,1 54182U 22141AB  23290.35304067  .00024029  00000-0  14638-2 0  9995,2 54182  53.2157 298.4795 0003593  93.1464 266.9940 15.10280146 54526,6913.482,95.347,537.831,532.863,0.0
54182.0,STARLINK-5231,PAYLOAD,2023-10-17 18:00:10,15.10254594,0.0003974,53.2158,296.6929,86.8728,273.272,0.00094971,0.00015458,0.0,0 STARLINK-5231,1 54182U 22141AB  23290.75011637  .00015458  00000-0  94971-3 0  9992,2 54182  53.2158 296.6929 0003974  86.8728 273.2720 15.10254594 54582,6913.56,95.348,538.172,532.677,0.0
54182.0,STARLINK-5231,PAYLOAD,2023-10-18 00:21:21,15.1022044,0.000379,53.216,295.502,91.8814,268.2613,0.00034895,5.481e-05,0.0,0 STARLINK-5231,1 54182U 22141AB  23291.01483631  .00005481  00000-0  34895-3 0  9993,2 54182  53.2160 295.5020 0003790  91.8814 268.2613 15.10220440 54390,6913.664,95.35,538.149,532.909,0.0
54182.0,STARLINK-5231,PAYLOAD,2023-10-18 09:53:09,15.1020259,0.0003122,53.2162,293.7151,95.2873,264.8476,0.0014873,0.00024368,0.0,0 STARLINK-5231,1 54182U 22141AB  23291.41191830  .00024368  00000-0  14873-2 0  9992,2 54182  53.2162 293.7151 0003122  95.2873 264.8476 15.10202590 54686,6913.719,95.351,537.742,533.425,0.0
54182.0,STARLINK-5231,PAYLOAD,2023-10-19 03:21:43,15.0961569,8.38e-05,53.217,290.4417,32.2292,327.8751,-0.012006,-0.00190359,0.0,0 STARLINK-5231,1 54182U 22141AB  23292.14008921 -.00190359  00000-0 -12006-1 0  9992,2 54182  53.2170 290.4417 0000838  32.2292 327.8751 15.09615690 54796,6915.51,95.389,537.955,536.796,0.0
54182.0,STARLINK-5231,PAYLOAD,2023-10-19 09:43:13,15.09186142,0.0001133,53.217,289.2515,78.4403,281.6716,-0.013685,-0.00213704,0.0,0 STARLINK-5231,1 54182U 22141AB  23292.40502146 -.00213704  00000-0 -13685-1 0  9993,2 54182  53.2170 289.2515 0001133  78.4403 281.6716 15.09186142 54834,6916.823,95.416,539.471,537.904,0.0
54182.0,STARLINK-5231,PAYLOAD,2023-10-19 11:18:37,15.0904473,0.0002338,53.2168,288.9538,135.6147,224.5033,-0.016327,-0.00252581,0.0,0 STARLINK-5231,1 54182U 22141AB  23292.47126819 -.00252581  00000-0 -16327-1 0  9991,2 54182  53.2168 288.9538 0002338 135.6147 224.5033 15.09044730 54611,6917.255,95.425,540.737,537.502,0.0
54182.0,STARLINK-5231,PAYLOAD,2023-10-19 22:00:00,15.07995177,0.0001184,53.2165,286.9553,91.0227,169.0911,0.0023648,0.00036684,0.0,0 STARLINK-5231,1 54182U 22141AB  23292.91667824  .00036684  00000-0  23648-2 0  9993,2 54182  53.2165 286.9553 0001184  91.0227 169.0911 15.07995177 54914,6920.464,95.491,543.148,541.509,0.0
54182.0,STARLINK-5231,PAYLOAD,2023-10-20 00:00:00,15.0801058,0.0001206,53.2167,286.5819,91.6501,261.1067,0.0011189,0.00017166,0.0,0 STARLINK-5231,1 54182U 22141AB  23293.00001157  .00017166  00000-0  11189-2 0  9996,2 54182  53.2167 286.5819 0001206  91.6501 261.1067 15.08010580  5798,6920.417,95.49,543.116,541.447,0.0
54182.0,STARLINK-5231,PAYLOAD,2023-10-20 14:00:01,15.0801111,0.0001436,53.2164,283.9679,90.2215,191.0958,-0.00051653,-8.313e-05,0.0,0 STARLINK-5231,1 54182U 22141AB  23293.58334491 -.00008313  00000-0 -51653-3 0  9996,2 54182  53.2164 283.9679 0001436  90.2215 191.0958 15.08011110 55012,6920.415,95.49,543.274,541.286,0.0
54182.0,STARLINK-5231,PAYLOAD,2023-10-20 22:00:00,15.07992534,0.0001499,53.2167,282.4721,100.7283,191.182,0.0035978,0.0005611,0.0,0 STARLINK-5231,1 54182U 22141AB  23293.91667824  .00056110  00000-0  35978-2 0  9999,2 54182  53.2167 282.4721 0001499 100.7283 191.1820 15.07992534  5772,6920.472,95.491,543.374,541.3,0.0
54182.0,STARLINK-5231,PAYLOAD,2023-10-21 14:00:01,15.0803631,0.0001474,53.2163,279.4846,99.007,214.1235,-0.00049528,-7.989e-05,0.0,0 STARLINK-5231,1 54182U 22141AB  23294.58334491 -.00007989  00000-0 -49528-3 0  9993,2 54182  53.2163 279.4846 0001474  99.0070 214.1235 15.08036310 55165,6920.338,95.488,543.223,541.183,0.0
54182.0,STARLINK-5231,PAYLOAD,2023-10-22 00:00:00,15.08052443,0.0001537,53.2165,277.6158,105.9956,310.4124,0.0011344,0.00017428,0.0,0 STARLINK-5231,1 54182U 22141AB  23295.00001157  .00017428  00000-0  11344-2 0  9992,2 54182  53.2165 277.6158 0001537 105.9956 310.4124 15.08052443  5744,6920.289,95.487,543.217,541.09,0.0
54182.0,STARLINK-5231,PAYLOAD,2023-10-22 06:00:00,15.08092096,0.0001479,53.2162,276.4963,94.3036,240.0898,-0.0089132,-0.00136642,0.0,0 STARLINK-5231,1 54182U 22141AB  23295.25001157 -.00136642  00000-0 -89132-2 0  9991,2 54182  53.2162 276.4963 0001479  94.3036 240.0898 15.08092096 55263,6920.167,95.485,543.056,541.009,0.0
54182.0,STARLINK-5231,PAYLOAD,2023-10-22 14:00:01,15.08002653,0.0001453,53.2157,275.0011,90.5092,254.5155,-0.0016588,-0.00025996,0.0,0 STARLINK-5231,1 54182U 22141AB  23295.58334491 -.00025996  00000-0 -16588-2 0  9991,2 54182  53.2157 275.0011 0001453  90.5092 254.5155 15.08002653  5832,6920.441,95.491,543.312,541.3,0.0
54182.0,STARLINK-5231,PAYLOAD,2023-10-22 22:00:00,15.07980302,0.0001505,53.2158,273.5057,97.7193,257.8785,0.0031166,0.00048499,0.0,0 STARLINK-5231,1 54182U 22141AB  23295.91667824  .00048499  00000-0  31166-2 0  9997,2 54182  53.2158 273.5057 0001505  97.7193 257.8785 15.07980302 55368,6920.509,95.492,543.416,541.333,0.0
54182.0,STARLINK-5231,PAYLOAD,2023-10-23 00:00:02,15.08004431,0.0001513,53.2158,273.1325,96.8866,351.4115,0.00068156,0.00010333,0.0,0 STARLINK-5231,1 54182U 22141AB  23296.00002315  .00010333  00000-0  68156-3 0  9992,2 54182  53.2158 273.1325 0001513  96.8866 351.4115 15.08004431  5542,6920.436,95.49,543.348,541.254,0.0
54182.0,STARLINK-5231,PAYLOAD,2023-10-23 05:58:24,15.08012078,0.0001637,53.2168,272.0179,92.2098,267.9081,-0.00017908,-3.071e-05,0.0,0 STARLINK-5231,1 54182U 22141AB  23296.24889438 -.00003071  00000-0 -17908-3 0  9999,2 54182  53.2168 272.0179 0001637  92.2098 267.9081 15.08012078 55412,6920.412,95.49,543.41,541.144,0.0
54182.0,STARLINK-5231,PAYLOAD,2023-10-24 07:25:24,15.08028365,0.0001647,53.216,267.2622,89.8945,270.2236,0.00085409,0.00013034,0.0,0 STARLINK-5231,1 54182U 22141AB  23297.30931542  .00013034  00000-0  85409-3 0  9990,2 54182  53.2160 267.2622 0001647  89.8945 270.2236 15.08028365 55579,6920.362,95.489,543.367,541.088,0.0
54182.0,STARLINK-5231,PAYLOAD,2023-10-25 04:06:05,15.08029235,0.000181,53.2164,263.3994,97.4385,262.6812,0.00042271,6.3e-05,0.0,0 STARLINK-5231,1 54182U 22141AB  23298.17090245  .00006300  00000-0  42271-3 0  9990,2 54182  53.2164 263.3994 0001810  97.4385 262.6812 15.08029235 55704,6920.36,95.489,543.477,540.972,0.0
